[{"OBJECT_NAME":"UTMN 2 (RS27S)","OBJECT_ID":"2023-091AP","EPOCH":"2026-03-09T23:09:07.917408","MEAN_MOTION":15.29495965,"ECCENTRICITY":0.00097379,"INCLINATION":97.5194,"RA_OF_ASC_NODE":134.949,"ARG_OF_PERICENTER":76.0788,"MEAN_ANOMALY":284.1534,"EPHEMERIS_TYPE":0,"CLASSIFICATION_TYPE":"U","NORAD_CAT_ID":57203,"ELEMENT_SET_NO":999,"REV_AT_EPOCH":14936,"BSTAR":0.00056135701,"MEAN_MOTION_DOT":0.00016013,"MEAN_MOTION_DDOT":0},{"OBJECT_NAME":"STARLINK-32685","OBJECT_ID":"2025-003P","EPOCH":"2026-03-09T00:04:27.653376","MEAN_MOTION":15.27605936,"ECCENTRICITY":0.00019809,"INCLINATION":43.001,"RA_OF_ASC_NODE":293.1001,"ARG_OF_PERICENTER":250.2841,"MEAN_ANOMALY":109.7797,"EPHEMERIS_TYPE":0,"CLASSIFICATION_TYPE":"U","NORAD_CAT_ID":62500,"ELEMENT_SET_NO":999,"REV_AT_EPOCH":6651,"BSTAR":0.0010523619,"MEAN_MOTION_DOT":0.00028833,"MEAN_MOTION_DDOT":0}]
